HIERARCHY
ROOT Hips
{
	OFFSET	0.00	0.00	0.00
	CHANNELS 6 Xposition Yposition Zposition Zrotation Xrotation Yrotation
	JOINT Spine
	{
		OFFSET	0.00	9.60	0.00
		CHANNELS 3 Zrotation Xrotation Yrotation
		JOINT Chest
		{
			OFFSET	0.00	6.40	0.00
			CHANNELS 3 Zrotation Xrotation Yrotation
			JOINT Neck
			{
				OFFSET	0.00	5.00	0.00
				CHANNELS 3 Zrotation Xrotation Yrotation
				JOINT Head
				{
					OFFSET	0.00	4.00	0.00
					CHANNELS 3 Zrotation Xrotation Yrotation
					End Site
					{
						OFFSET	0.00	4.00	0.00
					}
				}
			}
		}
	}
	JOINT LeftUpLeg
	{
		OFFSET	-3.40	-0.20	0.00
		CHANNELS 3 Zrotation Xrotation Yrotation
		End Site
		{
			OFFSET	0.00	5.00	0.00
		}
	}
	JOINT RightUpLeg
	{
		OFFSET	3.40	-0.20	0.00
		CHANNELS 3 Zrotation Xrotation Yrotation
		End Site
		{
			OFFSET	0.00	5.00	0.00
		}
	}
}
MOTION
Frames:	10
Frame Time:	0.033333
0.00 0.00 0.00 0.00 0.00 0.00 0.00 0.00 0.00 0.00 0.00 0.00 0.00 0.00 0.00 0.00 0.00 0.00 0.00 0.00 0.00
0.00 0.10 0.00 1.00 0.50 0.00 2.00 1.00 0.00 1.50 0.50 0.00 0.50 0.20 0.00 -3.00 0.00 0.00 3.00 0.00 0.00
0.00 0.20 0.00 2.00 1.00 0.00 3.50 1.80 0.00 2.00 1.00 0.00 0.80 0.30 0.00 -5.00 0.00 0.00 5.00 0.00 0.00
0.00 0.30 0.00 3.00 1.20 0.00 4.00 2.00 0.00 2.50 1.20 0.00 1.00 0.30 0.00 -6.00 0.00 0.00 6.00 0.00 0.00
0.00 0.35 0.00 3.20 1.10 0.00 4.20 1.80 0.00 2.80 1.00 0.00 1.10 0.20 0.00 -6.20 0.00 0.00 6.20 0.00 0.00
0.00 0.30 0.00 3.00 0.80 0.00 4.00 1.50 0.00 2.50 0.80 0.00 0.90 0.10 0.00 -5.80 0.00 0.00 5.80 0.00 0.00
0.00 0.20 0.00 2.00 0.50 0.00 3.00 1.00 0.00 2.00 0.50 0.00 0.60 0.00 0.00 -4.50 0.00 0.00 4.50 0.00 0.00
0.00 0.10 0.00 1.00 0.20 0.00 2.00 0.50 0.00 1.20 0.20 0.00 0.30 0.00 0.00 -3.00 0.00 0.00 3.00 0.00 0.00
0.00 0.05 0.00 0.50 0.10 0.00 1.00 0.20 0.00 0.60 0.10 0.00 0.10 0.00 0.00 -1.50 0.00 0.00 1.50 0.00 0.00
0.00 0.00 0.00 0.00 0.00 0.00 0.00 0.00 0.00 0.00 0.00 0.00 0.00 0.00 0.00 0.00 0.00 0.00 0.00 0.00 0.00
